{
    "RECORDS": [
        {
            "bb": null,
            "bb_pos": 0,
            "id": 116471206215034,
            "CCSDS_CDM_VERS": 98894.67,
            "CREATION_DATE": "1993-10-18T19:19:38.540Z",
            "ORIGINATOR": "Skiles - Beahan",
            "MESSAGE_FOR": "Runolfsson - Buckridge",
            "MESSAGE_ID": "0xb",
            "TCA": "2076-05-20T16:48:19.832Z",
            "MISS_DISTANCE": 18563.1,
            "RELATIVE_SPEED": 63053.37,
            "RELATIVE_POSITION_R": 87124.78,
            "RELATIVE_POSITION_T": 42733.05,
            "RELATIVE_POSITION_N": 45335.77,
            "RELATIVE_VELOCITY_R": 60971.41,
            "RELATIVE_VELOCITY_T": 52354.36,
            "RELATIVE_VELOCITY_N": 47765.76,
            "START_SCREEN_PERIOD": "0x5",
            "STOP_SCREEN_PERIOD": "0x3",
            "SCREEN_VOLUME_FRAME": "0x7",
            "SCREEN_VOLUME_SHAPE": "0xA",
            "SCREEN_VOLUME_X": 84902.85,
            "SCREEN_VOLUME_Y": 90349.59,
            "SCREEN_VOLUME_Z": 7050.73,
            "SCREEN_ENTRY_TIME": "2061-03-14T10:35:14.672Z",
            "SCREEN_EXIT_TIME": "2097-01-04T01:24:03.442Z",
            "COLLISION_PROBABILITY": 41147.08,
            "COLLISION_PROBABILITY_METHOD": "0xB",
            "OBJECT1": 607124442278727,
            "OBJECT2": 943720463253652
        },
        {
            "bb": null,
            "bb_pos": 0,
            "id": 490066557106848,
            "CCSDS_CDM_VERS": 13251.28,
            "CREATION_DATE": "2073-10-24T11:06:41.671Z",
            "ORIGINATOR": "Schinner - Wisozk",
            "MESSAGE_FOR": "Frami, Lind and Flatley",
            "MESSAGE_ID": "0x5",
            "TCA": "1990-01-24T22:58:50.281Z",
            "MISS_DISTANCE": 10371.8,
            "RELATIVE_SPEED": 89379.76,
            "RELATIVE_POSITION_R": 74314,
            "RELATIVE_POSITION_T": 85557.95,
            "RELATIVE_POSITION_N": 82913.74,
            "RELATIVE_VELOCITY_R": 1132.48,
            "RELATIVE_VELOCITY_T": 28730.14,
            "RELATIVE_VELOCITY_N": 96154.83,
            "START_SCREEN_PERIOD": "0x6",
            "STOP_SCREEN_PERIOD": "0x4",
            "SCREEN_VOLUME_FRAME": "0xA",
            "SCREEN_VOLUME_SHAPE": "0xF",
            "SCREEN_VOLUME_X": 67408.76,
            "SCREEN_VOLUME_Y": 68300.99,
            "SCREEN_VOLUME_Z": 26776.62,
            "SCREEN_ENTRY_TIME": "2030-12-30T08:04:44.239Z",
            "SCREEN_EXIT_TIME": "2011-09-16T20:37:32.088Z",
            "COLLISION_PROBABILITY": 81886.06,
            "COLLISION_PROBABILITY_METHOD": "0x8",
            "OBJECT1": 394455015448807,
            "OBJECT2": 751283867835847
        },
        {
            "bb": null,
            "bb_pos": 0,
            "id": 615505090821423,
            "CCSDS_CDM_VERS": 1169.4,
            "CREATION_DATE": "2072-07-10T16:29:52.741Z",
            "ORIGINATOR": "Will, Wehner and Strosin",
            "MESSAGE_FOR": "Vandervort Group",
            "MESSAGE_ID": "0x1",
            "TCA": "2028-06-10T05:02:18.576Z",
            "MISS_DISTANCE": 41144.77,
            "RELATIVE_SPEED": 88116.72,
            "RELATIVE_POSITION_R": 34686.3,
            "RELATIVE_POSITION_T": 81232.81,
            "RELATIVE_POSITION_N": 67777.93,
            "RELATIVE_VELOCITY_R": 96750.17,
            "RELATIVE_VELOCITY_T": 17271.06,
            "RELATIVE_VELOCITY_N": 10866.75,
            "START_SCREEN_PERIOD": "0x7",
            "STOP_SCREEN_PERIOD": "0x9",
            "SCREEN_VOLUME_FRAME": "0x2",
            "SCREEN_VOLUME_SHAPE": "0xB",
            "SCREEN_VOLUME_X": 30594.9,
            "SCREEN_VOLUME_Y": 46080.11,
            "SCREEN_VOLUME_Z": 57272.01,
            "SCREEN_ENTRY_TIME": "1997-02-23T03:43:49.425Z",
            "SCREEN_EXIT_TIME": "2041-12-19T11:34:44.966Z",
            "COLLISION_PROBABILITY": 43336.46,
            "COLLISION_PROBABILITY_METHOD": "0xC",
            "OBJECT1": 155713496402517,
            "OBJECT2": 143008445975161
        },
        {
            "bb": null,
            "bb_pos": 0,
            "id": 776515034966464,
            "CCSDS_CDM_VERS": 13900.48,
            "CREATION_DATE": "1992-02-24T09:20:35.386Z",
            "ORIGINATOR": "Aufderhar Group",
            "MESSAGE_FOR": "Gislason Inc",
            "MESSAGE_ID": "0xB",
            "TCA": "2077-12-30T19:23:17.385Z",
            "MISS_DISTANCE": 21363.7,
            "RELATIVE_SPEED": 25687.52,
            "RELATIVE_POSITION_R": 70881.58,
            "RELATIVE_POSITION_T": 47600.1,
            "RELATIVE_POSITION_N": 75940.08,
            "RELATIVE_VELOCITY_R": 84913.83,
            "RELATIVE_VELOCITY_T": 10325.65,
            "RELATIVE_VELOCITY_N": 72408.89,
            "START_SCREEN_PERIOD": "0x1",
            "STOP_SCREEN_PERIOD": "0xA",
            "SCREEN_VOLUME_FRAME": "0x9",
            "SCREEN_VOLUME_SHAPE": "0x8",
            "SCREEN_VOLUME_X": 53775.56,
            "SCREEN_VOLUME_Y": 70300.87,
            "SCREEN_VOLUME_Z": 53804.23,
            "SCREEN_ENTRY_TIME": "2091-09-16T07:41:41.615Z",
            "SCREEN_EXIT_TIME": "2014-09-12T10:16:58.727Z",
            "COLLISION_PROBABILITY": 20685.93,
            "COLLISION_PROBABILITY_METHOD": "0x1",
            "OBJECT1": 322809749591277,
            "OBJECT2": 717368227963050
        },
        {
            "bb": null,
            "bb_pos": 0,
            "id": 794664515004058,
            "CCSDS_CDM_VERS": 90729.46,
            "CREATION_DATE": "1992-03-05T10:38:50.801Z",
            "ORIGINATOR": "Kling, Spencer and Haag",
            "MESSAGE_FOR": "Stroman - McClure",
            "MESSAGE_ID": "0x6",
            "TCA": "2093-10-04T16:17:16.783Z",
            "MISS_DISTANCE": 22182.93,
            "RELATIVE_SPEED": 43667.04,
            "RELATIVE_POSITION_R": 77852.13,
            "RELATIVE_POSITION_T": 94554.4,
            "RELATIVE_POSITION_N": 10135.92,
            "RELATIVE_VELOCITY_R": 50210.36,
            "RELATIVE_VELOCITY_T": 69667.99,
            "RELATIVE_VELOCITY_N": 11629.55,
            "START_SCREEN_PERIOD": "0xC",
            "STOP_SCREEN_PERIOD": "0xA",
            "SCREEN_VOLUME_FRAME": "0x8",
            "SCREEN_VOLUME_SHAPE": "0x8",
            "SCREEN_VOLUME_X": 32132.33,
            "SCREEN_VOLUME_Y": 23530.83,
            "SCREEN_VOLUME_Z": 18565.5,
            "SCREEN_ENTRY_TIME": "2070-01-03T09:56:42.401Z",
            "SCREEN_EXIT_TIME": "2058-11-01T10:15:32.352Z",
            "COLLISION_PROBABILITY": 71968.89,
            "COLLISION_PROBABILITY_METHOD": "0xB",
            "OBJECT1": 362700589293594,
            "OBJECT2": 675478940727372
        },
        {
            "bb": null,
            "bb_pos": 0,
            "id": 810957012124771,
            "CCSDS_CDM_VERS": 93947.23,
            "CREATION_DATE": "2019-10-23T19:02:08.603Z",
            "ORIGINATOR": "Streich, Parker and O'Connell",
            "MESSAGE_FOR": "O'Hara - Considine",
            "MESSAGE_ID": "0x5",
            "TCA": "1997-03-07T16:39:49.767Z",
            "MISS_DISTANCE": 60675.86,
            "RELATIVE_SPEED": 19675.13,
            "RELATIVE_POSITION_R": 3509.77,
            "RELATIVE_POSITION_T": 91101.23,
            "RELATIVE_POSITION_N": 45747.44,
            "RELATIVE_VELOCITY_R": 47892.65,
            "RELATIVE_VELOCITY_T": 79234.24,
            "RELATIVE_VELOCITY_N": 7544.85,
            "START_SCREEN_PERIOD": "0xA",
            "STOP_SCREEN_PERIOD": "0x3",
            "SCREEN_VOLUME_FRAME": "0xC",
            "SCREEN_VOLUME_SHAPE": "0xf",
            "SCREEN_VOLUME_X": 11345.57,
            "SCREEN_VOLUME_Y": 61183.3,
            "SCREEN_VOLUME_Z": 60770.52,
            "SCREEN_ENTRY_TIME": "2054-10-13T19:05:32.186Z",
            "SCREEN_EXIT_TIME": "1994-11-28T12:46:11.304Z",
            "COLLISION_PROBABILITY": 35995.81,
            "COLLISION_PROBABILITY_METHOD": "0x0",
            "OBJECT1": 839048657969259,
            "OBJECT2": 131192277387637
        },
        {
            "bb": null,
            "bb_pos": 0,
            "id": 814340865259208,
            "CCSDS_CDM_VERS": 13659.67,
            "CREATION_DATE": "2017-08-18T13:28:42.075Z",
            "ORIGINATOR": "Heathcote - Lind",
            "MESSAGE_FOR": "Nolan - Kertzmann",
            "MESSAGE_ID": "0xB",
            "TCA": "2046-01-12T14:08:15.416Z",
            "MISS_DISTANCE": 76351,
            "RELATIVE_SPEED": 94242.66,
            "RELATIVE_POSITION_R": 71093.82,
            "RELATIVE_POSITION_T": 8713.41,
            "RELATIVE_POSITION_N": 62123.3,
            "RELATIVE_VELOCITY_R": 41942.57,
            "RELATIVE_VELOCITY_T": 74892.46,
            "RELATIVE_VELOCITY_N": 22177.54,
            "START_SCREEN_PERIOD": "0xF",
            "STOP_SCREEN_PERIOD": "0x3",
            "SCREEN_VOLUME_FRAME": "0x9",
            "SCREEN_VOLUME_SHAPE": "0xE",
            "SCREEN_VOLUME_X": 62676.11,
            "SCREEN_VOLUME_Y": 93043.39,
            "SCREEN_VOLUME_Z": 74255.04,
            "SCREEN_ENTRY_TIME": "2026-12-19T18:19:34.135Z",
            "SCREEN_EXIT_TIME": "2080-06-06T18:29:19.030Z",
            "COLLISION_PROBABILITY": 86313.74,
            "COLLISION_PROBABILITY_METHOD": "0x6",
            "OBJECT1": 303937493583216,
            "OBJECT2": 441905374453
        },
        {
            "bb": null,
            "bb_pos": 0,
            "id": 863376283921172,
            "CCSDS_CDM_VERS": 32917.22,
            "CREATION_DATE": "2077-08-09T00:32:50.241Z",
            "ORIGINATOR": "Konopelski and Sons",
            "MESSAGE_FOR": "Prosacco - Marks",
            "MESSAGE_ID": "0xB",
            "TCA": "2078-10-18T20:11:10.383Z",
            "MISS_DISTANCE": 78572.44,
            "RELATIVE_SPEED": 14570.4,
            "RELATIVE_POSITION_R": 84868.35,
            "RELATIVE_POSITION_T": 1345.03,
            "RELATIVE_POSITION_N": 82894.92,
            "RELATIVE_VELOCITY_R": 87168.91,
            "RELATIVE_VELOCITY_T": 99423.92,
            "RELATIVE_VELOCITY_N": 94658.77,
            "START_SCREEN_PERIOD": "0xC",
            "STOP_SCREEN_PERIOD": "0xc",
            "SCREEN_VOLUME_FRAME": "0x6",
            "SCREEN_VOLUME_SHAPE": "0xe",
            "SCREEN_VOLUME_X": 83944.58,
            "SCREEN_VOLUME_Y": 32051.35,
            "SCREEN_VOLUME_Z": 93771.48,
            "SCREEN_ENTRY_TIME": "2011-05-07T16:13:30.198Z",
            "SCREEN_EXIT_TIME": "2009-09-03T09:46:10.943Z",
            "COLLISION_PROBABILITY": 56118.55,
            "COLLISION_PROBABILITY_METHOD": "0x3",
            "OBJECT1": 147910524366478,
            "OBJECT2": 645506138534846
        },
        {
            "bb": null,
            "bb_pos": 0,
            "id": 897119756104487,
            "CCSDS_CDM_VERS": 63678.6,
            "CREATION_DATE": "2011-09-20T13:36:17.668Z",
            "ORIGINATOR": "Blick Group",
            "MESSAGE_FOR": "Bashirian - Fahey",
            "MESSAGE_ID": "0x6",
            "TCA": "2074-05-19T23:08:53.773Z",
            "MISS_DISTANCE": 17090.2,
            "RELATIVE_SPEED": 64211.61,
            "RELATIVE_POSITION_R": 95109.97,
            "RELATIVE_POSITION_T": 858.43,
            "RELATIVE_POSITION_N": 10236.91,
            "RELATIVE_VELOCITY_R": 21857.31,
            "RELATIVE_VELOCITY_T": 21596.91,
            "RELATIVE_VELOCITY_N": 70708.71,
            "START_SCREEN_PERIOD": "0x3",
            "STOP_SCREEN_PERIOD": "0xC",
            "SCREEN_VOLUME_FRAME": "0x5",
            "SCREEN_VOLUME_SHAPE": "0xF",
            "SCREEN_VOLUME_X": 75314.99,
            "SCREEN_VOLUME_Y": 285.4,
            "SCREEN_VOLUME_Z": 41189.39,
            "SCREEN_ENTRY_TIME": "2008-02-12T18:11:30.965Z",
            "SCREEN_EXIT_TIME": "2097-01-11T18:25:18.884Z",
            "COLLISION_PROBABILITY": 57406.58,
            "COLLISION_PROBABILITY_METHOD": "0x3",
            "OBJECT1": 71336637597156,
            "OBJECT2": 568006918820851
        },
        {
            "bb": null,
            "bb_pos": 0,
            "id": 905452898843809,
            "CCSDS_CDM_VERS": 49603.57,
            "CREATION_DATE": "2051-02-10T13:51:39.145Z",
            "ORIGINATOR": "Swift, Dickens and Larson",
            "MESSAGE_FOR": "Haag - VonRueden",
            "MESSAGE_ID": "0x1",
            "TCA": "2069-07-29T09:43:35.097Z",
            "MISS_DISTANCE": 72408,
            "RELATIVE_SPEED": 14312.06,
            "RELATIVE_POSITION_R": 34581.29,
            "RELATIVE_POSITION_T": 25352.94,
            "RELATIVE_POSITION_N": 20652.72,
            "RELATIVE_VELOCITY_R": 32587.78,
            "RELATIVE_VELOCITY_T": 75145.57,
            "RELATIVE_VELOCITY_N": 75354.59,
            "START_SCREEN_PERIOD": "0xA",
            "STOP_SCREEN_PERIOD": "0x3",
            "SCREEN_VOLUME_FRAME": "0xc",
            "SCREEN_VOLUME_SHAPE": "0x2",
            "SCREEN_VOLUME_X": 85463.81,
            "SCREEN_VOLUME_Y": 94219.29,
            "SCREEN_VOLUME_Z": 12469.41,
            "SCREEN_ENTRY_TIME": "2053-02-20T08:21:55.194Z",
            "SCREEN_EXIT_TIME": "2077-04-15T23:56:14.828Z",
            "COLLISION_PROBABILITY": 38329.97,
            "COLLISION_PROBABILITY_METHOD": "0x2",
            "OBJECT1": 877244953693580,
            "OBJECT2": 698441035288149
        }
    ]
}